[{"OBJECT_NAME":"POLYTECH UNIVERSE-4","OBJECT_ID":"2024-199N","EPOCH":"2026-03-09T22:39:35.452512","MEAN_MOTION":15.41920317,"ECCENTRICITY":0.00080129,"INCLINATION":97.316,"RA_OF_ASC_NODE":301.6563,"ARG_OF_PERICENTER":282.4901,"MEAN_ANOMALY":77.5449,"EPHEMERIS_TYPE":0,"CLASSIFICATION_TYPE":"U","NORAD_CAT_ID":61747,"ELEMENT_SET_NO":999,"REV_AT_EPOCH":12205,"BSTAR":0.00052704604,"MEAN_MOTION_DOT":0.0002238,"MEAN_MOTION_DDOT":0},{"OBJECT_NAME":"HJS-6D","OBJECT_ID":"2025-067D","EPOCH":"2026-03-09T22:49:18.222240","MEAN_MOTION":15.37665042,"ECCENTRICITY":0.00092864,"INCLINATION":54.9903,"RA_OF_ASC_NODE":108.3969,"ARG_OF_PERICENTER":72.3879,"MEAN_ANOMALY":287.8162,"EPHEMERIS_TYPE":0,"CLASSIFICATION_TYPE":"U","NORAD_CAT_ID":63431,"ELEMENT_SET_NO":999,"REV_AT_EPOCH":5274,"BSTAR":0.0003282023,"MEAN_MOTION_DOT":0.00011947,"MEAN_MOTION_DDOT":0}]
